#cP2019  7 15  0  0  0.00000000      96 ORBIT IGS14 HLM  IGS
## 2062  86400.00000000   900.00000000 58679 0.0000000000000
+   31   G01G02G03G05G06G07G08G09G10G11G12G13G14G15G16G17G18
+        G19G20G21G22G23G24G25G26G27G28G29G30G31G32  0  0  0
+          0  0  0  0  0  0  0  0  0  0  0  0  0  0  0  0  0
+          0  0  0  0  0  0  0  0  0  0  0  0  0  0  0  0  0
+          0  0  0  0  0  0  0  0  0  0  0  0  0  0  0  0  0
++         2  2  2  2  2  2  2  2  2  2  2  2  2  2  2  2  2
++         2  2  2  2  2  2  4  2  2  2  2  2  2  2  0  0  0
++         0  0  0  0  0  0  0  0  0  0  0  0  0  0  0  0  0
++         0  0  0  0  0  0  0  0  0  0  0  0  0  0  0  0  0
++         0  0  0  0  0  0  0  0  0  0  0  0  0  0  0  0  0
%c G  cc GPS ccc cccc cccc cccc cccc ccccc ccccc ccccc ccccc
%c cc cc ccc ccc cccc cccc cccc cccc ccccc ccccc ccccc ccccc
%f  1.2500000  1.025000000  0.00000000000  0.000000000000000
%f  0.0000000  0.000000000  0.00000000000  0.000000000000000
%i    0    0    0    0      0      0      0      0         0
%i    0    0    0    0      0      0      0      0         0
/* FINAL ORBIT COMBINATION FROM WEIGHTED AVERAGE OF:        
/* cod emr esa gfz grg jpl mit ngs sio                      
/* REFERENCED TO IGS TIME (IGST) AND TO WEIGHTED MEAN POLE: 
/* PCV:IGS14_2062 OL/AL:FES2004  NONE     Y  ORB:CMB CLK:CMB
*  2019  7 15  0 45  0.00000000
PG01 -13524.434534  22357.271056  -3853.560431    -67.483316  7  4  5  84       
PG02  19027.206314 -10165.007223 -14791.474268   -260.250393  7  9  7  97       
PG03  -9710.684202  13420.233026 -20788.183243    181.100608  7  5  5 111       
PG05  25459.385808  -2963.311987   7236.526695      0.070014  5  7  6 105       
PG06  14472.118816   5054.336873 -21652.707573    149.390319  7  7  8  96       
PG07  -1620.995209  20982.319323  16178.163726    -64.468369  6  5  6  93       
PG08  -9181.049281  13987.929253  20606.588952   -151.184747  7  6  6  90       
PG09   7295.149847  25022.914618  -5120.453410    370.750783  6  5  7  69       
PG10 -20199.539864 -11451.141971  13143.367579    -16.373181  8  4  7  75       
PG11  -8906.647957  24485.458453   5306.855601   -560.971034  8  6  6  58       
PG12  12967.921706 -11413.203378 -20340.407159    223.858916  7  6  8  79       
PG13  14547.817956  -3761.063594  21792.621861    -54.539421  4  6  5 104       
PG14 -16512.079376 -12111.108379 -16688.298502    -71.455336  9  7  6 107       
PG15   8305.494193 -15378.577473  19627.512093   -300.812175  6  6  6  89       
PG16 -25695.795708   -213.926049   7363.265871    -56.242352 11  8  7  77       
PG17  14698.608604  19210.055497 -10666.042448     88.850401  9  6  7  98       
PG18 -17076.316600  19563.612059   4753.092577     69.966322  6  5  4  99       
PG19  15994.272349  13422.105947 -16688.289164   -294.028552 10  4  8 102       
PG20 -12089.646524 -14021.060847  18997.054215    525.995665  6  5  6  89       
PG21  -4036.431662 -18867.303540  19118.449266   -154.567237  6  7  6  87       
PG22 -17058.307114  11631.866097 -16433.819349   -731.091328  8  6  3 107       
PG23  -3022.247375  20764.851413 -15697.872469   -177.164485  9  2  5 109       
PG24  14287.370240 -22169.985819   -461.051510    -68.801240  7  5  7  93       
PG25  -1988.657604 -15309.515225 -21848.850525   -773.362579 11 12  8  95       
PG26 -26097.299093  -4491.299077  -3083.947311    251.434486 10  9  9  95       
PG27 -15552.754428    474.125673  21454.519639   -185.116505  5  6  6 108       
PG28  18702.274397  13330.946722  13855.404849    766.473330  7  7  6  76       
PG29  -3043.458529 -25013.141449  -8413.515711    151.268833 10  7  8  81       
PG30   7846.686847  14474.221590  20838.262331   -143.240642  5  7  6  68       
PG31 -15987.167423  -3475.640749 -21006.711195     24.304124  7  9  9  99       
PG32 -16346.676228 -17925.742585 -10888.063490     -2.651242  5  7  6  64       
*  2019  7 15  1  0  0.00000000
PG01 -13862.465937  22433.507533   -965.075006    -67.492836  7  4  5  93       
PG02  18220.141981  -8420.698312 -16714.649744   -260.257864  7  9  7  90       
PG03 -12005.978205  13137.313936 -19733.263223    181.098718  8  5  4 108       
PG05  26128.414974  -2665.952315   4520.258300      0.069715  5  8  5  93       
PG06  13072.673792   7125.218031 -21954.908631    149.380153  6  7  8  97       
PG07  -2788.942591  22249.320633  14121.466377    -64.475190  6  6  6  98       
PG08 -10303.274908  11865.837602  21411.123681   -151.186540  6  6  6  99       
PG09   6729.508323  24479.212688  -7828.634356    370.743217  6  5  7  66       
PG10 -18580.670545 -11497.745280  15304.312930    -16.384873  7  3  6  85       
PG11  -9140.589686  23620.668253   7901.850795   -560.962504  8  5  6  85       
PG12  15138.571070 -10994.939011 -18998.875319    223.855618  8  6  8  78       
PG13  15314.446774  -1380.041859  21552.887076    -54.537787  4  6  5  96       
PG14 -17004.820480 -13898.709900 -14740.349514    -71.453516  9  6  7 100       
PG15   9627.246821 -13409.108166  20474.537205   -300.810014  6  6  6  89       
PG16 -26356.896026   -484.217818   4597.003971    -56.245670 10  8  7 117       
PG17  14961.150034  20311.060725  -8045.918419     88.856399  9  5  7  89       
PG18 -16911.365918  18769.676742   7486.773475     69.968818  5  5  4  89       
PG19  16452.741903  15106.307672 -14634.608615   -294.024214 10  5  8 101       
PG20  -9835.085485 -14241.126909  20082.374447    525.995621  6  5  6  85       
PG21  -2909.969718 -20469.408398  17559.117622   -154.561151  7  6  6  61       
PG22 -18877.456552  11371.845344 -14536.090987   -731.095547  8  5  3  97       
PG23  -4102.434436  19095.246314 -17472.027913   -177.163093  9  2  5 115       
PG24  14515.147015 -21880.303809   2365.801668    -68.800777  6  5  7  75       
PG25    465.234415 -15109.456570 -22052.726035   -773.364998 11 12  9 101       
PG26 -25576.694505  -4726.181938  -5849.158543    251.442723 10  9  8 104       
PG27 -16553.177676  -1733.047415  20656.434510   -185.126154  4  5  6 109       
PG28  17088.970473  13188.275068  16011.774848    766.472995  6  7  6  91       
PG29  -2482.208436 -24047.179626 -11022.482015    151.260059  9  7  8  92       
PG30   6354.597593  16279.978497  19978.084996   -143.247369  6  6  6  69       
PG31 -14576.384932  -5453.853506 -21565.288929     24.301920  7  9  8  82       
PG32 -16617.287459 -19023.126657  -8343.671496     -2.637506  5  6  6  90       
*  2019  7 15  1 15  0.00000000
PG01 -14023.939112  22244.925495   1940.327214    -67.502362  7  3  5  82       
PG02  17405.375550  -6453.534958 -18335.431092   -260.265923  7  9  7 102       
PG03 -14175.415252  12978.347780 -18339.281092    181.096770  7  5  4 105       
PG05  26500.954856  -2403.031262   1726.955401      0.069377  6  8  5 110       
PG06  11781.170581   9280.396039 -21877.929266    149.370038  6  6  7  82       
PG07  -3763.750185  23366.851773  11820.109830    -64.481807  6  7  6  99       
PG08 -11571.019525   9747.414941  21847.208580   -151.186661  6  6  5  90       
PG09   5990.324332  23705.070754 -10402.181534    370.735619  7  5  7  74       
PG10 -16737.251700 -11625.836805  17205.314557    -16.396586  5  3  5  95       
PG11  -9387.556594  22480.781242  10360.360352   -560.953847  8  5  7  71       
PG12  17162.623692 -10712.467754 -17334.256428    223.852251  8  6  8  86       
PG13  16187.684094    911.273626  20938.747326    -54.536106  5  6  5  89       
PG14 -17492.784330 -15439.206613 -12535.535581    -71.451985  8  6  7  79       
PG15  11078.366236 -11441.630599  20958.733569   -300.807690  5  6  5  92       
PG16 -26717.944606   -681.267414   1753.345994    -56.248556  9  7  7 104       
PG17  15153.127477  21116.352262  -5285.994754     88.862542  9  5  7  79       
PG18 -16643.424990  17696.859411  10088.464756     69.971521  5  4  4  94       
PG19  16907.904905  16539.288106 -12333.109937   -294.019754  9  5  7  99       
PG20  -7489.081068 -14578.105527  20820.210660    525.995883  5  5  5  93       
PG21  -1952.598179 -21965.375010  15716.088494   -154.554667  7  6  6  82       
PG22 -20475.943312  11185.844176 -12383.632706   -731.100035  8  5  4 107       
PG23  -5353.197764  17318.479087 -18933.182618   -177.161518  9  1  4  89       
PG24  14605.456673 -21320.120775   5151.003725    -68.802546  6  5  7  82       
PG25   2930.801696 -15042.529310 -21884.585750   -773.367389 11 12  9  82       
PG26 -24762.941417  -4988.551565  -8514.809300    251.450977 10  8  8 108       
PG27 -17618.312593  -3781.975710  19501.588615   -185.135828  3  6  6  94       
PG28  15250.419014  13109.897312  17902.214069    766.472642  6  7  5  96       
PG29  -1747.122506 -22855.920807 -13441.943661    151.250829  9  7  7  89       
PG30   5015.888296  18060.797894  18773.485570   -143.254116  6  6  6  89       
PG31 -13245.446425  -7542.100449 -21754.233382     24.299494  7  9  8  95       
PG32 -16800.576347 -19846.228396  -5656.330575     -2.623798  5  6  6  60       
EOF
